{
  "type": "FeatureCollection",
  "features": [
    {
      "type": "Feature",
      "properties": {
        "norad_id": 33901,
        "name": "COSMOS 2251 DEB",
        "group": "cosmos-2251-debris",
        "lat": 41.71409580372671,
        "lon": 73.85840628721337,
        "alt_km": 536.1352476929251,
        "timestamp": "2025-12-08T05:48:09.426557+00:00",
        "meta_object_name": "COSMOS 2251 DEB",
        "meta_object_id": "1993-036DE",
        "meta_epoch": "2025-12-07T21:41:05.379072",
        "meta_mean_motion": 15.15082925,
        "meta_eccentricity": 0.00333553,
        "meta_inclination": 73.7731,
        "meta_ra_of_asc_node": 59.526,
        "meta_arg_of_pericenter": 191.6775,
        "meta_mean_anomaly": 168.3649,
        "meta_ephemeris_type": 0,
        "meta_classification_type": "U",
        "meta_norad_cat_id": 33901,
        "meta_element_set_no": 999,
        "meta_rev_at_epoch": 89440,
        "meta_bstar": 0.0040041345,
        "meta_mean_motion_dot": 0.00076768,
        "meta_mean_motion_ddot": 0,
        "tle_line1": "1 33901U 93036DE  25341.90353448  .00076768  00000+0  40041-2 0  9992",
        "tle_line2": "2 33901  73.7731  59.5260 0033355 191.6775 168.3649 15.15082925894408"
      },
      "geometry": {
        "type": "Point",
        "coordinates": [
          73.85840628721337,
          41.71409580372671
        ]
      }
    },
    {
      "type": "Feature",
      "properties": {
        "norad_id": 33905,
        "name": "COSMOS 2251 DEB",
        "group": "cosmos-2251-debris",
        "lat": -20.719085823945328,
        "lon": -41.30786584903866,
        "alt_km": 801.7082318255425,
        "timestamp": "2025-12-08T05:48:09.426567+00:00",
        "meta_object_name": "COSMOS 2251 DEB",
        "meta_object_id": "1993-036DJ",
        "meta_epoch": "2025-12-07T23:31:03.428256",
        "meta_mean_motion": 14.3535782,
        "meta_eccentricity": 0.00591764,
        "meta_inclination": 73.8873,
        "meta_ra_of_asc_node": 325.4537,
        "meta_arg_of_pericenter": 215.8881,
        "meta_mean_anomaly": 209.3984,
        "meta_ephemeris_type": 0,
        "meta_classification_type": "U",
        "meta_norad_cat_id": 33905,
        "meta_element_set_no": 999,
        "meta_rev_at_epoch": 87619,
        "meta_bstar": 0.00096799557,
        "meta_mean_motion_dot": 2.806e-05,
        "meta_mean_motion_ddot": 0,
        "tle_line1": "1 33905U 93036DJ  25341.97990079  .00002806  00000+0  96800-3 0  9997",
        "tle_line2": "2 33905  73.8873 325.4537 0059176 215.8881 209.3984 14.35357820876192"
      },
      "geometry": {
        "type": "Point",
        "coordinates": [
          -41.30786584903866,
          -20.719085823945328
        ]
      }
    },
    {
      "type": "Feature",
      "properties": {
        "norad_id": 33906,
        "name": "COSMOS 2251 DEB",
        "group": "cosmos-2251-debris",
        "lat": -49.54535460615078,
        "lon": 169.6425951162286,
        "alt_km": 725.3160100205214,
        "timestamp": "2025-12-08T05:48:09.426577+00:00",
        "meta_object_name": "COSMOS 2251 DEB",
        "meta_object_id": "1993-036DK",
        "meta_epoch": "2025-12-07T09:38:50.529408",
        "meta_mean_motion": 14.56942979,
        "meta_eccentricity": 0.00364484,
        "meta_inclination": 74.0306,
        "meta_ra_of_asc_node": 331.6149,
        "meta_arg_of_pericenter": 1.9761,
        "meta_mean_anomaly": 147.613,
        "meta_ephemeris_type": 0,
        "meta_classification_type": "U",
        "meta_norad_cat_id": 33906,
        "meta_element_set_no": 999,
        "meta_rev_at_epoch": 87930,
        "meta_bstar": 0.0033204755,
        "meta_mean_motion_dot": 0.00015051,
        "meta_mean_motion_ddot": 0,
        "tle_line1": "1 33906U 93036DK  25341.40197372  .00015051  00000+0  33205-2 0  9996",
        "tle_line2": "2 33906  74.0306 331.6149 0036448   1.9761 147.6130 14.56942979879304"
      },
      "geometry": {
        "type": "Point",
        "coordinates": [
          169.6425951162286,
          -49.54535460615078
        ]
      }
    },
    {
      "type": "Feature",
      "properties": {
        "norad_id": 33907,
        "name": "COSMOS 2251 DEB",
        "group": "cosmos-2251-debris",
        "lat": -73.35800735111171,
        "lon": -31.01423930063441,
        "alt_km": 877.7527827838485,
        "timestamp": "2025-12-08T05:48:09.426587+00:00",
        "meta_object_name": "COSMOS 2251 DEB",
        "meta_object_id": "1993-036DL",
        "meta_epoch": "2025-12-06T23:07:13.105632",
        "meta_mean_motion": 14.30429007,
        "meta_eccentricity": 0.01126368,
        "meta_inclination": 74.0704,
        "meta_ra_of_asc_node": 44.1429,
        "meta_arg_of_pericenter": 101.3359,
        "meta_mean_anomaly": 72.7026,
        "meta_ephemeris_type": 0,
        "meta_classification_type": "U",
        "meta_norad_cat_id": 33907,
        "meta_element_set_no": 999,
        "meta_rev_at_epoch": 86497,
        "meta_bstar": 0.002682257,
        "meta_mean_motion_dot": 7.46e-05,
        "meta_mean_motion_ddot": 0,
        "tle_line1": "1 33907U 93036DL  25340.96334613  .00007460  00000+0  26823-2 0  9991",
        "tle_line2": "2 33907  74.0704  44.1429 0112636 101.3359  72.7026 14.30429007864979"
      },
      "geometry": {
        "type": "Point",
        "coordinates": [
          -31.01423930063441,
          -73.35800735111171
        ]
      }
    },
    {
      "type": "Feature",
      "properties": {
        "norad_id": 33908,
        "name": "COSMOS 2251 DEB",
        "group": "cosmos-2251-debris",
        "lat": -36.6486361474626,
        "lon": -158.71139058801978,
        "alt_km": 852.9426656776786,
        "timestamp": "2025-12-08T05:48:09.426598+00:00",
        "meta_object_name": "COSMOS 2251 DEB",
        "meta_object_id": "1993-036DM",
        "meta_epoch": "2025-12-06T09:37:41.435328",
        "meta_mean_motion": 14.07270417,
        "meta_eccentricity": 0.02237099,
        "meta_inclination": 73.8378,
        "meta_ra_of_asc_node": 217.0126,
        "meta_arg_of_pericenter": 241.6716,
        "meta_mean_anomaly": 116.1695,
        "meta_ephemeris_type": 0,
        "meta_classification_type": "U",
        "meta_norad_cat_id": 33908,
        "meta_element_set_no": 999,
        "meta_rev_at_epoch": 85384,
        "meta_bstar": 0.0030396285,
        "meta_mean_motion_dot": 6.384e-05,
        "meta_mean_motion_ddot": 0,
        "tle_line1": "1 33908U 93036DM  25340.40117402  .00006384  00000+0  30396-2 0  9990",
        "tle_line2": "2 33908  73.8378 217.0126 0223709 241.6716 116.1695 14.07270417853840"
      },
      "geometry": {
        "type": "Point",
        "coordinates": [
          -158.71139058801978,
          -36.6486361474626
        ]
      }
    },
    {
      "type": "Feature",
      "properties": {
        "norad_id": 33911,
        "name": "COSMOS 2251 DEB",
        "group": "cosmos-2251-debris",
        "lat": 69.68324624240745,
        "lon": -138.9973046297235,
        "alt_km": 630.9655119191812,
        "timestamp": "2025-12-08T05:48:09.426613+00:00",
        "meta_object_name": "COSMOS 2251 DEB",
        "meta_object_id": "1993-036DQ",
        "meta_epoch": "2025-12-07T19:45:04.756608",
        "meta_mean_motion": 14.74651344,
        "meta_eccentricity": 0.00143764,
        "meta_inclination": 74.0895,
        "meta_ra_of_asc_node": 171.4252,
        "meta_arg_of_pericenter": 114.631,
        "meta_mean_anomaly": 260.2936,
        "meta_ephemeris_type": 0,
        "meta_classification_type": "U",
        "meta_norad_cat_id": 33911,
        "meta_element_set_no": 999,
        "meta_rev_at_epoch": 88572,
        "meta_bstar": 0.003369383,
        "meta_mean_motion_dot": 0.00022567,
        "meta_mean_motion_ddot": 0,
        "tle_line1": "1 33911U 93036DQ  25341.82297172  .00022567  00000+0  33694-2 0  9999",
        "tle_line2": "2 33911  74.0895 171.4252 0014376 114.6310 260.2936 14.74651344885728"
      },
      "geometry": {
        "type": "Point",
        "coordinates": [
          -138.9973046297235,
          69.68324624240745
        ]
      }
    },
    {
      "type": "Feature",
      "properties": {
        "norad_id": 33912,
        "name": "COSMOS 2251 DEB",
        "group": "cosmos-2251-debris",
        "lat": -24.804745819513897,
        "lon": -169.40586794161993,
        "alt_km": 720.3769940106331,
        "timestamp": "2025-12-08T05:48:09.426623+00:00",
        "meta_object_name": "COSMOS 2251 DEB",
        "meta_object_id": "1993-036DR",
        "meta_epoch": "2025-12-07T23:36:59.155200",
        "meta_mean_motion": 14.51854924,
        "meta_eccentricity": 0.00115449,
        "meta_inclination": 74.0332,
        "meta_ra_of_asc_node": 198.6832,
        "meta_arg_of_pericenter": 277.5116,
        "meta_mean_anomaly": 149.9449,
        "meta_ephemeris_type": 0,
        "meta_classification_type": "U",
        "meta_norad_cat_id": 33912,
        "meta_element_set_no": 999,
        "meta_rev_at_epoch": 88364,
        "meta_bstar": 0.00093284269,
        "meta_mean_motion_dot": 3.734e-05,
        "meta_mean_motion_ddot": 0,
        "tle_line1": "1 33912U 93036DR  25341.98401800  .00003734  00000+0  93284-3 0  9999",
        "tle_line2": "2 33912  74.0332 198.6832 0011544 277.5116 149.9449 14.51854924883642"
      },
      "geometry": {
        "type": "Point",
        "coordinates": [
          -169.40586794161993,
          -24.804745819513897
        ]
      }
    }
  ]
}